1 44703U 19072A   25330.16610913  .00006581  00000+0  29468-3 0  9998
2 44703  97.2722  33.9313 0016066  33.6369 326.5883 15.21472337336776
